COSMOS 2425 (716)       
1 29670U 06062A   18091.63555449 -.00000011  00000-0  10000-3 0  9995
2 29670  65.3177 295.1240 0022308 351.3417  32.2419  2.13104918 87686
COSMOS 2426 (717)       
1 29671U 06062B   18092.43441295 -.00000014  00000-0  10000-3 0  9991
2 29671  65.3330 295.1928 0016905 157.6896 335.0586  2.13102988 87702
COSMOS 2433 (720)       
1 32275U 07052A   18092.41797547 -.00000041  00000-0  10000-3 0  9997
2 32275  65.6541  55.9023 0004973 286.9114 168.5169  2.13104566 81212
COSMOS 2432 (719)       
1 32276U 07052B   18091.55783422 -.00000043  00000-0  10000-3 0  9991
2 32276  65.6665  56.0071 0013726 329.3904 138.2839  2.13103971 81194
COSMOS 2434 (721)       
1 32393U 07065A   18092.13946561 -.00000013  00000-0  00000+0 0  9997
2 32393  64.9320 294.1175 0005604  91.3001  38.7359  2.13102856 79913
COSMOS 2436 (723)       
1 32395U 07065C   18092.38450014 -.00000014  00000-0  10000-3 0  9995
2 32395  64.9431 294.1577 0016454   6.5247   1.6152  2.13104263 79856
COSMOS 2456 (730)       
1 36111U 09070A   18091.62198784  .00000021  00000-0  00000+0 0  9994
2 36111  64.1830 173.7186 0004606 313.7658 311.3255  2.13102831 64560
COSMOS 2457 (733)       
1 36112U 09070B   18092.43953447  .00000019  00000-0  00000+0 0  9997
2 36112  64.1657 173.6022 0005937 171.6122 127.9271  2.13101530 64587
COSMOS 2458 (734)       
1 36113U 09070C   18092.41923704  .00000020  00000-0  10000-3 0  9996
2 36113  64.1702 173.6138 0001730 358.8556 333.4481  2.13102156 64586
COSMOS 2459 (731)       
1 36400U 10007A   18092.15847850 -.00000043  00000-0  10000-3 0  9991
2 36400  65.5629  54.9812 0029047 348.2316 127.6623  2.13102197 62939
COSMOS 2461 (735)       
1 36401U 10007B   18091.55212480 -.00000045  00000-0  10000-3 0  9992
2 36401  65.5556  54.9793 0005967  41.4752 239.8334  2.13102196 62910
COSMOS 2460 (732)       
1 36402U 10007C   18091.36403524 -.00000045  00000-0  10000-3 0  9993
2 36402  65.5442  54.9529 0002793 314.1263 223.6861  2.13101641 62913
COSMOS 2464 (736)       
1 37139U 10041C   18091.40187618 -.00000011  00000-0  00000+0 0  9995
2 37139  64.5369 293.9868 0025480  15.6667 136.3010  2.13102683 58983
COSMOS 2471 (701K)      
1 37372U 11009A   18092.05687567 -.00000044  00000-0  00000+0 0  9995
2 37372  65.5434  54.8748 0008898 246.0587 245.6150  2.13107612 55200
COSMOS 2474 (742)       
1 37829U 11055A   18091.58012705  .00000021  00000-0  00000+0 0  9990
2 37829  64.5076 174.4052 0008711 248.8072 202.6651  2.13101821 50567
COSMOS 2476 (744)       
1 37867U 11064A   18092.44214336  .00000019  00000-0  00000+0 0  9999
2 37867  64.4875 174.4396 0018310 242.3126 196.4932  2.13101972 49939
COSMOS 2477 (745)       
1 37868U 11064B   18092.15556053  .00000020  00000-0  00000+0 0  9995
2 37868  64.4953 174.4971 0016142 243.8434 154.0553  2.13101733 49883
COSMOS 2475 (743)       
1 37869U 11064C   18092.14958663  .00000020  00000-0  00000+0 0  9998
2 37869  64.5024 174.4916 0020650 268.8712  81.0891  2.13101875 49889
COSMOS 2485 (747)       
1 39155U 13019A   18092.12593900  .00000020  00000-0  00000+0 0  9997
2 39155  64.6556 174.5428 0018745 237.6036   3.5329  2.13101907 38399
COSMOS 2492 (754)       
1 39620U 14012A   18091.98963991 -.00000044  00000-0  10000-3 0  9994
2 39620  65.4357  54.8280 0017160 326.4873 204.7576  2.13103399 31340
COSMOS 2500 (755)       
1 40001U 14032A   18092.45827873 -.00000043  00000-0  00000+0 0  9996
2 40001  65.3764  54.7865 0006026 234.3172 158.8690  2.13102799 29573
COSMOS 2501 (702K)      
1 40315U 14075A   18092.20158605 -.00000016  00000-0  00000+0 0  9994
2 40315  64.2611 295.1974 0014074 204.9346 153.8182  2.13098502 25966
COSMOS 2514 (751)       
1 41330U 16008A   18092.12366703 -.00000044  00000-0  00000+0 0  9992
2 41330  65.1786  54.8711 0009353 233.5336  83.6661  2.13103076 16726
COSMOS 2516 (753)       
1 41554U 16032A   18091.61133806 -.00000013  00000-0  00000+0 0  9992
2 41554  64.4818 295.0628 0009846 216.1109 319.4188  2.13101669 14324
COSMOS 2522 (752)       
1 42939U 17055A   18092.17032265 -.00000014  00000-0  00000+0 0  9996
2 42939  64.7123 294.9875 0005049 253.9795 216.7999  2.13101884  4098
